IRIDIUM 126             
1 42809U 17039G   25219.81824530  .00000242  00000+0  79378-4 0  9998
2 42809  86.3992 124.6665 0002032  79.9931 280.1494 14.34216915425046
IRIDIUM 124             
1 42810U 17039H   25219.46900045  .00000272  00000+0  74818-4 0  9994
2 42810  86.4442  61.5142 0002189  93.5284 266.6168 14.43282873429861
IRIDIUM 128             
1 42811U 17039J   25219.80896721  .00000015  00000+0 -16106-5 0  9991
2 42811  86.4029 156.1508 0002140  93.4948 266.6493 14.34217599425065
IRIDIUM 121             
1 42812U 17039K   25219.83725449  .00000235  00000+0  76935-4 0  9991
2 42812  86.3992 124.6840 0002272  87.5219 272.6237 14.34220119425036
IRIDIUM 133             
1 42955U 17061A   25219.91044843  .00000019  00000+0 -25286-6 0  9991
2 42955  86.4030 156.2183 0002217  85.3704 274.7745 14.34217691409875
IRIDIUM 100             
1 42956U 17061B   25219.90410435  .00000037  00000+0  59859-5 0  9996
2 42956  86.4029 156.1471 0002065  87.3258 272.8174 14.34218095409874
IRIDIUM 122             
1 42957U 17061C   25219.87239275  .00000021  00000+0  38871-6 0  9999
2 42957  86.4026 156.1595 0002190  84.4374 275.7071 14.34217701409876
IRIDIUM 129             
1 42958U 17061D   25219.82799516 -.00000007  00000+0 -97370-5 0  9998
2 42958  86.4030 156.2416 0002372  74.5901 285.5557 14.34217618409889
